BEIDOU-2 IGSO-4         
1 37763U 11038A   26157.61745852  .00000066  00000+0  00000+0 0  9998
2 37763  54.5986 165.7673 0159070 231.3681 173.1210  1.00287300 54540
ASTRA 1N                
1 37775U 11041A   26159.70397359  .00000136  00000+0  00000+0 0  9990
2 37775   0.0805  35.6343 0006259  57.2158  76.8835  1.00272231 44449
BSAT-3C (JCSAT-110R)    
1 37776U 11041B   26159.59716458 -.00000334  00000+0  00000+0 0  9994
2 37776   0.0184 324.0889 0000486 202.1788  55.6591  1.00271607 50386
PAKSAT-1R               
1 37779U 11042A   26159.78179170  .00000170  00000+0  00000+0 0  9990
2 37779   0.6660  84.6853 0003241 345.7369 146.1964  1.00274945 54398
SES-2                   
1 37809U 11049A   26159.61170868 -.00000180  00000+0  00000+0 0  9990
2 37809   0.0444 120.4768 0002877 315.3085 314.4356  1.00271531 53877
ARABSAT-5C              
1 37810U 11049B   26159.70414691  .00000140  00000+0  00000+0 0  9992
2 37810   0.0480 354.5406 0003415 105.3376  70.7112  1.00273198 53959
EUTELSAT 7 WEST A       
1 37816U 11051A   26159.77006602 -.00000044  00000+0  00000+0 0  9991
2 37816   0.0606 354.1218 0004206  96.3137  76.6277  1.00271259 53790
QUETZSAT 1              
1 37826U 11054A   26159.54233032 -.00000226  00000+0  00000+0 0  9991
2 37826   0.0471  70.8961 0002795   8.7561 295.5300  1.00271857 49784
INTELSAT 18 (IS-18)     
1 37834U 11056A   26159.66459330  .00000069  00000+0  00000+0 0  9990
2 37834   0.0019 353.9956 0002042 101.1971 221.1195  1.00272128 53726
EUTELSAT 16A            
1 37836U 11057A   26159.77465939  .00000120  00000+0  00000+0 0  9995
2 37836   0.0420 355.4534 0005876  85.0323 111.5295  1.00270996  7253
VIASAT-1                
1 37843U 11059A   26159.62889800 -.00000007  00000+0  00000+0 0  9991
2 37843   0.0175 314.2408 0002301 128.5485 285.5318  1.00269351 47236
ASIASAT 7               
1 37933U 11069A   26159.86369421  .00000000  00000+0  00000+0 0  9992
2 37933   0.0174 355.3526 0001296  76.6791 241.6511  1.00266332 44777
BEIDOU-2 IGSO-5         
1 37948U 11073A   26159.78968603 -.00000162  00000+0  00000+0 0  9991
2 37948  47.6949 271.6515 0113642 221.6649 139.8991  1.00274891 53051
LUCH-5A                 
1 37951U 11074B   26159.62578126 -.00000035  00000+0  00000+0 0  9995
2 37951   8.7313  73.9336 0002316  16.8767 198.4781  1.00269774 52963
NIGCOMSAT 1R            
1 38014U 11077A   26159.77994897  .00000161  00000+0  00000+0 0  9991
2 38014   0.0160 152.3145 0002534 200.1433 227.9747  1.00271889 52879
WGS F4 (USA 233)        
1 38070U 12003A   26159.76384992  .00000000  00000+0  00000+0 0  9993
2 38070   0.0182 335.9773 0000507 310.8963 333.6820  1.00270440 44067
SES-4                   
1 38087U 12007A   26159.76711934 -.00000152  00000+0  00000+0 0  9994
2 38087   0.0250  27.3247 0002520  60.9279  63.0613  1.00270560 52144
BEIDOU-2 G5             
1 38091U 12008A   26159.87694345  .00000073  00000+0  00000+0 0  9999
2 38091   3.5521  69.7477 0009358 275.8683 286.0238  1.00270295 52285
MUOS-1                  
1 38093U 12009A   26159.68036670 -.00000113  00000+0  00000+0 0  9998
2 38093   5.4596  47.1638 0058862   1.1609 353.7036  1.00270645 52356
INTELSAT 22 (IS-22)     
1 38098U 12011A   26159.86559880 -.00000043  00000+0  00000+0 0  9991
2 38098   0.0255  67.2185 0001614   2.0611 211.6908  1.00273396  7109
APSTAR-7                
1 38107U 12013A   26159.50145144 -.00000085  00000+0  00000+0 0  9995
2 38107   0.0383  91.7182 0002994 355.6426  66.5450  1.00271176 51724
YAHSAT 1B               
1 38245U 12016A   26159.78090233  .00000143  00000+0  00000+0 0  9993
2 38245   0.0885  90.8663 0002689   9.8419 125.1871  1.00269865 45521
AEHF-2 (USA 235)        
1 38254U 12019A   26159.17614549 -.00000121  00000+0  00000+0 0  9998
2 38254   6.6308  57.5556 0002322   9.9391 235.9672  1.00270416  6898
JCSAT-13                
1 38331U 12023A   26159.79603953 -.00000340  00000+0  00000+0 0  9997
2 38331   0.0158  43.8717 0002862  56.5315 207.3627  1.00270923 51453
VINASAT-2               
1 38332U 12023B   26159.79759954 -.00000312  00000+0  00000+0 0  9990
2 38332   0.0192  20.8458 0002349  69.2811 226.0489  1.00271594 46577
NIMIQ 6                 
1 38342U 12026A   26159.53955698 -.00000158  00000+0  00000+0 0  9997
2 38342   0.0103 339.5647 0002756  96.4463 284.0621  1.00271556 50325
ZHONGXING-2A            
1 38352U 12028A   26159.86916086 -.00000276  00000+0  00000+0 0  9995
2 38352   1.4318  83.9919 0003762  34.7679 189.6226  1.00270476 51213
INTELSAT 19 (IS-19)     
1 38356U 12030A   26159.73311109 -.00000040  00000+0  00000+0 0  9992
2 38356   0.0176 328.0906 0003072 117.0847 241.8684  1.00271997 50362
ECHOSTAR 17             
1 38551U 12035A   26159.61117497  .00000000  00000+0  00000+0 0  9990
2 38551   0.0188 344.7517 0001858  91.1841 293.9848  1.00268952 50975
METEOSAT-10 (MSG-3)     
1 38552U 12035B   26159.34375716  .00000010  00000+0  00000+0 0  9992
2 38552   4.6498  61.0570 0001616 335.3251 344.3203  1.00275798 50767
SES-5                   
1 38652U 12036A   26159.62992891  .00000050  00000+0  00000+0 0  9998
2 38652   0.0520 307.9114 0002005 126.2440  54.6226  1.00271642 44370
INTELSAT 20 (IS-20)     
1 38740U 12043A   26159.86227287 -.00000010  00000+0  00000+0 0  9997
2 38740   0.0056  81.1388 0001755  80.5850 114.4471  1.00279459 50664
