OBJECT_NAME,OBJECT_ID,EPOCH,MEAN_MOTION,ECCENTRICITY,INCLINATION,RA_OF_ASC_NODE,ARG_OF_PERICENTER,MEAN_ANOMALY,EPHEMERIS_TYPE,CLASSIFICATION_TYPE,NORAD_CAT_ID,ELEMENT_SET_NO,REV_AT_EPOCH,BSTAR,MEAN_MOTION_DOT,MEAN_MOTION_DDOT
BEIDOU-2 IGSO-4,2011-038A,2026-06-06T14:49:08.416128,1.00287300,.01590706,54.5986,165.7673,231.3681,173.1210,0,U,37763,999,5454,0,.66E-6,0
ASTRA 1N,2011-041A,2026-06-08T16:53:43.318176,1.00272231,.0006259,0.0805,35.6343,57.2158,76.8835,0,U,37775,999,4444,0,.136E-5,0
BSAT-3C (JCSAT-110R),2011-041B,2026-06-08T14:19:55.019712,1.00271607,.00004862,0.0184,324.0889,202.1788,55.6591,0,U,37776,999,5038,0,-.334E-5,0
PAKSAT-1R,2011-042A,2026-06-08T18:45:46.802880,1.00274945,.0003241,0.6660,84.6853,345.7369,146.1964,0,U,37779,999,5439,0,.17E-5,0
SES-2,2011-049A,2026-06-08T14:40:51.629952,1.00271531,.0002877,0.0444,120.4768,315.3085,314.4356,0,U,37809,999,5387,0,-.18E-5,0
ARABSAT-5C,2011-049B,2026-06-08T16:53:58.293024,1.00273198,.0003415,0.0480,354.5406,105.3376,70.7112,0,U,37810,999,5395,0,.14E-5,0
EUTELSAT 7 WEST A,2011-051A,2026-06-08T18:28:53.704128,1.00271259,.0004206,0.0606,354.1218,96.3137,76.6277,0,U,37816,999,5379,0,-.44E-6,0
QUETZSAT 1,2011-054A,2026-06-08T13:00:57.339648,1.00271857,.00027951,0.0471,70.8961,8.7561,295.5300,0,U,37826,999,4978,0,-.226E-5,0
INTELSAT 18 (IS-18),2011-056A,2026-06-08T15:57:00.861120,1.00272128,.0002042,0.0019,353.9956,101.1971,221.1195,0,U,37834,999,5372,0,.69E-6,0
EUTELSAT 16A,2011-057A,2026-06-08T18:35:30.571296,1.00270996,.0005876,0.0420,355.4534,85.0323,111.5295,0,U,37836,999,725,0,.12E-5,0
VIASAT-1,2011-059A,2026-06-08T15:05:36.787200,1.00269351,.0002301,0.0175,314.2408,128.5485,285.5318,0,U,37843,999,4723,0,-.7E-7,0
ASIASAT 7,2011-069A,2026-06-08T20:43:43.179744,1.00266332,.0001296,0.0174,355.3526,76.6791,241.6511,0,U,37933,999,4477,0,0,0
BEIDOU-2 IGSO-5,2011-073A,2026-06-08T18:57:08.872992,1.00274891,.0113642,47.6949,271.6515,221.6649,139.8991,0,U,37948,999,5305,0,-.162E-5,0
LUCH-5A,2011-074B,2026-06-08T15:01:07.500864,1.00269774,.0002316,8.7313,73.9336,16.8767,198.4781,0,U,37951,999,5296,0,-.35E-6,0
NIGCOMSAT 1R,2011-077A,2026-06-08T18:43:07.591008,1.00271889,.0002534,0.0160,152.3145,200.1433,227.9747,0,U,38014,999,5287,0,.161E-5,0
WGS F4 (USA 233),2012-003A,2026-06-08T18:19:56.633088,1.00270440,.0000507,0.0182,335.9773,310.8963,333.6820,0,U,38070,999,4406,0,0,0
SES-4,2012-007A,2026-06-08T18:24:39.110976,1.00270560,.000252,0.0250,27.3247,60.9279,63.0613,0,U,38087,999,5214,0,-.152E-5,0
BEIDOU-2 G5,2012-008A,2026-06-08T21:02:47.914080,1.00270295,.0009358,3.5521,69.7477,275.8683,286.0238,0,U,38091,999,5228,0,.73E-6,0
MUOS-1,2012-009A,2026-06-08T16:19:43.682880,1.00270645,.0058862,5.4596,47.1638,1.1609,353.7036,0,U,38093,999,5235,0,-.113E-5,0
INTELSAT 22 (IS-22),2012-011A,2026-06-08T20:46:27.736320,1.00273396,.0001614,0.0255,67.2185,2.0611,211.6908,0,U,38098,999,710,0,-.43E-6,0
APSTAR-7,2012-013A,2026-06-08T12:02:05.404416,1.00271176,.00029941,0.0383,91.7182,355.6426,66.5450,0,U,38107,999,5172,0,-.85E-6,0
YAHSAT 1B,2012-016A,2026-06-08T18:44:29.961312,1.00269865,.0002689,0.0885,90.8663,9.8419,125.1871,0,U,38245,999,4552,0,.143E-5,0
AEHF-2 (USA 235),2012-019A,2026-06-08T04:13:38.970336,1.00270416,.00023225,6.6308,57.5556,9.9391,235.9672,0,U,38254,999,689,0,-.121E-5,0
JCSAT-13,2012-023A,2026-06-08T19:06:17.815392,1.00270923,.0002862,0.0158,43.8717,56.5315,207.3627,0,U,38331,999,5145,0,-.34E-5,0
VINASAT-2,2012-023B,2026-06-08T19:08:32.600256,1.00271594,.0002349,0.0192,20.8458,69.2811,226.0489,0,U,38332,999,4657,0,-.312E-5,0
NIMIQ 6,2012-026A,2026-06-08T12:56:57.723072,1.00271556,.00027565,0.0103,339.5647,96.4463,284.0621,0,U,38342,999,5032,0,-.158E-5,0
ZHONGXING-2A,2012-028A,2026-06-08T20:51:35.498304,1.00270476,.0003762,1.4318,83.9919,34.7679,189.6226,0,U,38352,999,5121,0,-.276E-5,0
INTELSAT 19 (IS-19),2012-030A,2026-06-08T17:35:40.798176,1.00271997,.0003072,0.0176,328.0906,117.0847,241.8684,0,U,38356,999,5036,0,-.4E-6,0
ECHOSTAR 17,2012-035A,2026-06-08T14:40:05.517408,1.00268952,.0001858,0.0188,344.7517,91.1841,293.9848,0,U,38551,999,5097,0,0,0
METEOSAT-10 (MSG-3),2012-035B,2026-06-08T08:15:00.618624,1.00275798,.00016163,4.6498,61.0570,335.3251,344.3203,0,U,38552,999,5076,0,.1E-6,0
SES-5,2012-036A,2026-06-08T15:07:05.857824,1.00271642,.0002005,0.0520,307.9114,126.2440,54.6226,0,U,38652,999,4437,0,.5E-6,0
INTELSAT 20 (IS-20),2012-043A,2026-06-08T20:41:40.375968,1.00279459,.0001755,0.0056,81.1388,80.5850,114.4471,0,U,38740,999,5066,0,-.1E-6,0
